BRO-1                   
1 44495U 19054A   26191.83773042  .00794663  35111-3  82798-3 0  9994
2 44495  44.9829 145.8821 0008496 155.0495 205.0831 16.09658207383523
BRO-5                   
1 51061U 22002CF  26191.84489061  .00021555  00000+0  40346-3 0  9995
2 51061  97.2993 265.7430 0004915 219.7985 140.2906 15.48708048249913
BRO-6                   
1 52422U 22047AE  26191.80955708  .00031499  00000+0  51788-3 0  9998
2 52422  97.3392 283.3457 0003042 335.8519  24.2591 15.52320337234817
BRO-8                   
1 55011U 23001C   26191.80892071  .00023874  00000+0  41848-3 0  9993
2 55011  97.3196 257.3555 0005364  55.1935 304.9820 15.50558471195863
BRO-11                  
1 58264U 23174J   26191.83084124  .00002588  00000+0  98592-4 0  9990
2 58264  97.3901 268.4597 0011839 120.9358 239.3046 15.27566521148366
BRO-13                  
1 59107U 24043K   26191.82720587  .00000646  00000+0  61905-4 0  9993
2 59107  97.8518 322.9246 0007652 280.0155  80.0202 14.96643465128158
BRO-12                  
1 59108U 24043L   26191.81946058  .00000408  00000+0  40787-4 0  9997
2 59108  97.8505 323.0853 0007089 274.9322  85.1090 14.96888438128177
BRO-14                  
1 60551U 24149CM  26189.46234433  .00000498  00000+0  49245-4 0  9990
2 60551  97.6862 264.8578 0007328  36.5112 323.6608 14.96225728103171
BRO-15                  
1 60553U 24149CP  26190.44813664  .00000727  00000+0  69494-4 0  9994
2 60553  97.6798 265.4070 0008525  23.7668 336.3946 14.96220766103330
BRO-16                  
1 62654U 25009AX  26191.65002152  .00002322  00000+0  98481-4 0  9991
2 62654  97.4055 271.8469 0001726 162.8022 197.3274 15.24107951 82377
BRO-18                  
1 64550U 25135Y   26191.85287080  .00002874  00000+0  12840-3 0  9991
2 64550  97.4646 306.7028 0002290 121.9840 238.1619 15.22153412 58472
BRO-17                  
1 66672U 25276G   26190.98908799  .00001784  00000+0  90678-4 0  9999
2 66672  97.4185 263.6580 0005100 283.2606  76.8059 15.18135853 33850
BRO-20                  
1 66674U 25276J   26191.75654381  .00002159  00000+0  10851-3 0  9993
2 66674  97.4165 264.3988 0004640 284.0917  75.9802 15.18311727 33977
BRO-19                  
1 68422U 26067G   26191.30488085  .00002622  00000+0  12865-3 0  9994
2 68422  97.4483 149.4327 0002355 112.9741 247.1742 15.18969133 15457
BRO-21                  
1 69007U 26100AD  26189.69638385  .00001614  00000+0  74556-4 0  9997
2 69007  97.4020  87.2384 0007538 353.3605   6.7530 15.21599743 10071
BRO-22                  
1 69504U 26132C   26190.57006648  .00000764  00000+0  66480-4 0  9996
2 69504  97.6833 253.9635 0015951 201.2436 158.8127 14.99796310  4133
