{"fetched_at":"2026-07-11T06:35:18.219Z","source":"https://celestrak.org/NORAD/elements/gp.php?NAME=BRO&FORMAT=JSON","constellation":"unseenlabs","records":[{"OBJECT_NAME":"BRO-1","OBJECT_ID":"2019-054A","EPOCH":"2026-07-10T20:06:19.908288","CLASSIFICATION_TYPE":"U","MEAN_MOTION":16.09658207,"ECCENTRICITY":0.0008496,"INCLINATION":44.9829,"RA_OF_ASC_NODE":145.8821,"ARG_OF_PERICENTER":155.0495,"MEAN_ANOMALY":205.0831,"EPHEMERIS_TYPE":0,"NORAD_CAT_ID":44495,"ELEMENT_SET_NO":999,"REV_AT_EPOCH":38352,"BSTAR":0.00082798,"MEAN_MOTION_DOT":0.00794663,"MEAN_MOTION_DDOT":0.00035111},{"OBJECT_NAME":"BRO-5","OBJECT_ID":"2022-002CF","EPOCH":"2026-07-10T20:16:38.548704","CLASSIFICATION_TYPE":"U","MEAN_MOTION":15.48708048,"ECCENTRICITY":0.0004915,"INCLINATION":97.2993,"RA_OF_ASC_NODE":265.743,"ARG_OF_PERICENTER":219.7985,"MEAN_ANOMALY":140.2906,"EPHEMERIS_TYPE":0,"NORAD_CAT_ID":51061,"ELEMENT_SET_NO":999,"REV_AT_EPOCH":24991,"BSTAR":0.00040346,"MEAN_MOTION_DOT":0.00021555,"MEAN_MOTION_DDOT":0},{"OBJECT_NAME":"BRO-6","OBJECT_ID":"2022-047AE","EPOCH":"2026-07-10T19:25:45.731712","CLASSIFICATION_TYPE":"U","MEAN_MOTION":15.52320337,"ECCENTRICITY":0.0003042,"INCLINATION":97.3392,"RA_OF_ASC_NODE":283.3457,"ARG_OF_PERICENTER":335.8519,"MEAN_ANOMALY":24.2591,"EPHEMERIS_TYPE":0,"NORAD_CAT_ID":52422,"ELEMENT_SET_NO":999,"REV_AT_EPOCH":23481,"BSTAR":0.00051788,"MEAN_MOTION_DOT":0.00031499,"MEAN_MOTION_DDOT":0},{"OBJECT_NAME":"BRO-8","OBJECT_ID":"2023-001C","EPOCH":"2026-07-10T19:24:50.749344","CLASSIFICATION_TYPE":"U","MEAN_MOTION":15.50558471,"ECCENTRICITY":0.0005364,"INCLINATION":97.3196,"RA_OF_ASC_NODE":257.3555,"ARG_OF_PERICENTER":55.1935,"MEAN_ANOMALY":304.982,"EPHEMERIS_TYPE":0,"NORAD_CAT_ID":55011,"ELEMENT_SET_NO":999,"REV_AT_EPOCH":19586,"BSTAR":0.00041848,"MEAN_MOTION_DOT":0.00023874,"MEAN_MOTION_DDOT":0},{"OBJECT_NAME":"BRO-11","OBJECT_ID":"2023-174J","EPOCH":"2026-07-10T19:56:24.683136","CLASSIFICATION_TYPE":"U","MEAN_MOTION":15.27566521,"ECCENTRICITY":0.0011839,"INCLINATION":97.3901,"RA_OF_ASC_NODE":268.4597,"ARG_OF_PERICENTER":120.9358,"MEAN_ANOMALY":239.3046,"EPHEMERIS_TYPE":0,"NORAD_CAT_ID":58264,"ELEMENT_SET_NO":999,"REV_AT_EPOCH":14836,"BSTAR":0.000098592,"MEAN_MOTION_DOT":0.00002588,"MEAN_MOTION_DDOT":0},{"OBJECT_NAME":"BRO-13","OBJECT_ID":"2024-043K","EPOCH":"2026-07-10T19:51:10.587168","CLASSIFICATION_TYPE":"U","MEAN_MOTION":14.96643465,"ECCENTRICITY":0.0007652,"INCLINATION":97.8518,"RA_OF_ASC_NODE":322.9246,"ARG_OF_PERICENTER":280.0155,"MEAN_ANOMALY":80.0202,"EPHEMERIS_TYPE":0,"NORAD_CAT_ID":59107,"ELEMENT_SET_NO":999,"REV_AT_EPOCH":12815,"BSTAR":0.000061905,"MEAN_MOTION_DOT":0.00000646,"MEAN_MOTION_DDOT":0},{"OBJECT_NAME":"BRO-12","OBJECT_ID":"2024-043L","EPOCH":"2026-07-10T19:40:01.394112","CLASSIFICATION_TYPE":"U","MEAN_MOTION":14.96888438,"ECCENTRICITY":0.0007089,"INCLINATION":97.8505,"RA_OF_ASC_NODE":323.0853,"ARG_OF_PERICENTER":274.9322,"MEAN_ANOMALY":85.109,"EPHEMERIS_TYPE":0,"NORAD_CAT_ID":59108,"ELEMENT_SET_NO":999,"REV_AT_EPOCH":12817,"BSTAR":0.000040787,"MEAN_MOTION_DOT":0.00000408,"MEAN_MOTION_DDOT":0},{"OBJECT_NAME":"BRO-14","OBJECT_ID":"2024-149CM","EPOCH":"2026-07-08T11:05:46.550112","CLASSIFICATION_TYPE":"U","MEAN_MOTION":14.96225728,"ECCENTRICITY":0.00073282,"INCLINATION":97.6862,"RA_OF_ASC_NODE":264.8578,"ARG_OF_PERICENTER":36.5112,"MEAN_ANOMALY":323.6608,"EPHEMERIS_TYPE":0,"NORAD_CAT_ID":60551,"ELEMENT_SET_NO":999,"REV_AT_EPOCH":10317,"BSTAR":0.000049245054,"MEAN_MOTION_DOT":0.00000498,"MEAN_MOTION_DDOT":0},{"OBJECT_NAME":"BRO-15","OBJECT_ID":"2024-149CP","EPOCH":"2026-07-09T10:45:19.005696","CLASSIFICATION_TYPE":"U","MEAN_MOTION":14.96220766,"ECCENTRICITY":0.00085255,"INCLINATION":97.6798,"RA_OF_ASC_NODE":265.407,"ARG_OF_PERICENTER":23.7668,"MEAN_ANOMALY":336.3946,"EPHEMERIS_TYPE":0,"NORAD_CAT_ID":60553,"ELEMENT_SET_NO":999,"REV_AT_EPOCH":10333,"BSTAR":0.000069493641,"MEAN_MOTION_DOT":0.00000727,"MEAN_MOTION_DDOT":0},{"OBJECT_NAME":"BRO-16","OBJECT_ID":"2025-009AX","EPOCH":"2026-07-10T15:36:01.859328","CLASSIFICATION_TYPE":"U","MEAN_MOTION":15.24107951,"ECCENTRICITY":0.0001726,"INCLINATION":97.4055,"RA_OF_ASC_NODE":271.8469,"ARG_OF_PERICENTER":162.8022,"MEAN_ANOMALY":197.3274,"EPHEMERIS_TYPE":0,"NORAD_CAT_ID":62654,"ELEMENT_SET_NO":999,"REV_AT_EPOCH":8237,"BSTAR":0.000098481,"MEAN_MOTION_DOT":0.00002322,"MEAN_MOTION_DDOT":0},{"OBJECT_NAME":"BRO-18","OBJECT_ID":"2025-135Y","EPOCH":"2026-07-10T20:28:08.037120","CLASSIFICATION_TYPE":"U","MEAN_MOTION":15.22153412,"ECCENTRICITY":0.000229,"INCLINATION":97.4646,"RA_OF_ASC_NODE":306.7028,"ARG_OF_PERICENTER":121.984,"MEAN_ANOMALY":238.1619,"EPHEMERIS_TYPE":0,"NORAD_CAT_ID":64550,"ELEMENT_SET_NO":999,"REV_AT_EPOCH":5847,"BSTAR":0.0001284,"MEAN_MOTION_DOT":0.00002874,"MEAN_MOTION_DDOT":0},{"OBJECT_NAME":"BRO-17","OBJECT_ID":"2025-276G","EPOCH":"2026-07-09T23:44:17.202336","CLASSIFICATION_TYPE":"U","MEAN_MOTION":15.18135853,"ECCENTRICITY":0.00051003,"INCLINATION":97.4185,"RA_OF_ASC_NODE":263.658,"ARG_OF_PERICENTER":283.2606,"MEAN_ANOMALY":76.8059,"EPHEMERIS_TYPE":0,"NORAD_CAT_ID":66672,"ELEMENT_SET_NO":999,"REV_AT_EPOCH":3385,"BSTAR":0.00009067806,"MEAN_MOTION_DOT":0.00001784,"MEAN_MOTION_DDOT":0},{"OBJECT_NAME":"BRO-20","OBJECT_ID":"2025-276J","EPOCH":"2026-07-10T18:09:25.385184","CLASSIFICATION_TYPE":"U","MEAN_MOTION":15.18311727,"ECCENTRICITY":0.000464,"INCLINATION":97.4165,"RA_OF_ASC_NODE":264.3988,"ARG_OF_PERICENTER":284.0917,"MEAN_ANOMALY":75.9802,"EPHEMERIS_TYPE":0,"NORAD_CAT_ID":66674,"ELEMENT_SET_NO":999,"REV_AT_EPOCH":3397,"BSTAR":0.00010851,"MEAN_MOTION_DOT":0.00002159,"MEAN_MOTION_DDOT":0},{"OBJECT_NAME":"BRO-19","OBJECT_ID":"2026-067G","EPOCH":"2026-07-10T07:19:01.705440","CLASSIFICATION_TYPE":"U","MEAN_MOTION":15.18969133,"ECCENTRICITY":0.00023559,"INCLINATION":97.4483,"RA_OF_ASC_NODE":149.4327,"ARG_OF_PERICENTER":112.9741,"MEAN_ANOMALY":247.1742,"EPHEMERIS_TYPE":0,"NORAD_CAT_ID":68422,"ELEMENT_SET_NO":999,"REV_AT_EPOCH":1545,"BSTAR":0.00012865236,"MEAN_MOTION_DOT":0.00002622,"MEAN_MOTION_DDOT":0},{"OBJECT_NAME":"BRO-21","OBJECT_ID":"2026-100AD","EPOCH":"2026-07-08T16:42:47.564640","CLASSIFICATION_TYPE":"U","MEAN_MOTION":15.21599743,"ECCENTRICITY":0.00075385,"INCLINATION":97.402,"RA_OF_ASC_NODE":87.2384,"ARG_OF_PERICENTER":353.3605,"MEAN_ANOMALY":6.753,"EPHEMERIS_TYPE":0,"NORAD_CAT_ID":69007,"ELEMENT_SET_NO":999,"REV_AT_EPOCH":1007,"BSTAR":0.000074555828,"MEAN_MOTION_DOT":0.00001614,"MEAN_MOTION_DDOT":0},{"OBJECT_NAME":"BRO-22","OBJECT_ID":"2026-132C","EPOCH":"2026-07-09T13:40:53.743872","CLASSIFICATION_TYPE":"U","MEAN_MOTION":14.9979631,"ECCENTRICITY":0.00159513,"INCLINATION":97.6833,"RA_OF_ASC_NODE":253.9635,"ARG_OF_PERICENTER":201.2436,"MEAN_ANOMALY":158.8127,"EPHEMERIS_TYPE":0,"NORAD_CAT_ID":69504,"ELEMENT_SET_NO":999,"REV_AT_EPOCH":413,"BSTAR":0.000066480091,"MEAN_MOTION_DOT":0.00000764,"MEAN_MOTION_DDOT":0}]}
